name,source,collection_date,satellite_number,classification,launch_year,launch_number,launch_piece,epoch_year,epoch_day,inclination_deg,right_ascension_deg,eccentricity,argument_of_perigee_deg,mean_anomaly_deg,mean_motion,orbital_period_minutes,approximate_altitude_km,mean_motion_derivative,mean_motion_second_derivative,drag_term,element_set_number,revolution_number,line1,line2,category
STARLINK-11588 [DTC],celestrak_active,2025-07-29T17:08:40.718466,63319,U,2025,57,N,2025,210.28944427,42.9993,171.0144,0.0002004,301.3553,58.7119,15.7110127,91.65545388426807,0,0.00337174,0.0,0.024985,999,2204,1 63319U 25057N   25210.28944427  .00337174  00000+0  24985-2 0  9995,2 63319  42.9993 171.0144 0002004 301.3553  58.7119 15.71101270 22048,important
STARLINK-33671,celestrak_active,2025-07-29T17:08:40.718471,63320,U,2025,57,P,2025,210.36762681,42.9989,201.6419,0.0005737,290.0835,69.9404,15.40680807,93.4651741916585,0,0.00062089,0.0,0.014818,999,2174,1 63320U 25057P   25210.36762681  .00062089  00000+0  14818-2 0  9990,2 63320  42.9989 201.6419 0005737 290.0835  69.9404 15.40680807 21744,important
STARLINK-33650,celestrak_active,2025-07-29T17:08:40.718478,63321,U,2025,57,Q,2025,210.41874825,43.0012,211.5427,0.0001557,273.8136,86.2538,15.27598125,94.2656302357009,0,0.00021424,0.0,0.0078536,999,2159,1 63321U 25057Q   25210.41874825  .00021424  00000+0  78536-3 0  9997,2 63321  43.0012 211.5427 0001557 273.8136  86.2538 15.27598125 21591,important
STARLINK-33689,celestrak_active,2025-07-29T17:08:40.718483,63322,U,2025,57,R,2025,210.41103449,43.0012,211.4803,0.0001802,271.7493,88.3152,15.27598872,94.26558413955152,0,0.00024607,0.0,0.0090021,999,2163,1 63322U 25057R   25210.41103449  .00024607  00000+0  90021-3 0  9994,2 63322  43.0012 211.4803 0001802 271.7493  88.3152 15.27598872 21634,important
STARLINK-33607,celestrak_active,2025-07-29T17:08:40.718488,63323,U,2025,57,S,2025,210.36752962,42.9933,212.0186,0.0001492,72.8849,287.2166,15.27572448,94.26721474882218,0,0.00034765,0.0,0.012672000000000001,999,2158,1 63323U 25057S   25210.36752962  .00034765  00000+0  12672-2 0  9990,2 63323  42.9933 212.0186 0001492  72.8849 287.2166 15.27572448 21586,important
STARLINK-33619,celestrak_active,2025-07-29T17:08:40.718495,63324,U,2025,57,T,2025,210.27126752,43.0005,212.1455,0.0001183,286.6339,73.4383,15.27595751,94.26577673166099,0,0.00022143,0.0,0.0081137,999,2161,1 63324U 25057T   25210.27126752  .00022143  00000+0  81137-3 0  9993,2 63324  43.0005 212.1455 0001183 286.6339  73.4383 15.27595751 21617,important
STARLINK-33612,celestrak_active,2025-07-29T17:08:40.718500,63325,U,2025,57,U,2025,210.45729598,43.0036,211.8309,0.0001307,274.9955,85.0747,15.27593413,94.2659210065604,0,0.00015584,0.0,0.0057442000000000005,999,2163,1 63325U 25057U   25210.45729598  .00015584  00000+0  57442-3 0  9994,2 63325  43.0036 211.8309 0001307 274.9955  85.0747 15.27593413 21636,important
STARLINK-33672,celestrak_active,2025-07-29T17:08:40.718505,63326,U,2025,57,V,2025,210.48284254,43.0,211.1436,0.0001438,275.0269,85.0418,15.27596726,94.26571656582615,0,0.00017919,0.0,0.0065875000000000005,999,2164,1 63326U 25057V   25210.48284254  .00017919  00000+0  65875-3 0  9996,2 63326  43.0000 211.1436 0001438 275.0269  85.0418 15.27596726 21643,important
STARLINK-33625,celestrak_active,2025-07-29T17:08:40.718511,63327,U,2025,57,W,2025,210.38373259,43.0003,204.3577,0.0002175,283.7716,76.2893,15.27595587,94.2657868518705,0,0.00025804,0.0,0.009434699999999999,999,2171,1 63327U 25057W   25210.38373259  .00025804  00000+0  94347-3 0  9998,2 63327  43.0003 204.3577 0002175 283.7716  76.2893 15.27595587 21710,important
STARLINK-33699,celestrak_active,2025-07-29T17:08:40.718516,63328,U,2025,57,X,2025,210.43757021,43.0001,203.8967,7.43e-05,245.8729,114.2044,15.27570555,94.26733156688792,0,0.00015262,0.0,0.0056314,999,2168,1 63328U 25057X   25210.43757021  .00015262  00000+0  56314-3 0  9997,2 63328  43.0001 203.8967 0000743 245.8729 114.2044 15.27570555 21683,important
STARLINK-33674,celestrak_active,2025-07-29T17:08:40.718521,63329,U,2025,57,Y,2025,210.44060128,42.999,211.7029,0.0001264,266.9248,93.1459,15.27564654,94.2676957226846,0,0.00018634,0.0,0.0068529,999,2163,1 63329U 25057Y   25210.44060128  .00018634  00000+0  68529-3 0  9991,2 63329  42.9990 211.7029 0001264 266.9248  93.1459 15.27564654 21638,important
STARLINK-32840,celestrak_active,2025-07-29T17:08:40.718613,63363,U,2025,63,A,2025,210.16666293,53.1604,15.2302,0.0001024,86.363,273.7492,15.39654185,93.52749559148569,0,0.00034675,0.0,0.008719300000000001,999,2045,1 63363U 25063A   25210.16666293  .00034675  00000+0  87193-3 0  9991,2 63363  53.1604  15.2302 0001024  86.3630 273.7492 15.39654185 20450,important
STARLINK-32543,celestrak_active,2025-07-29T17:08:40.718619,63364,U,2025,63,B,2025,210.19410041,53.1603,14.6868,0.00012,76.0209,284.093,15.39653772,93.52752067949989,0,0.00039606,0.0,0.009939,999,2047,1 63364U 25063B   25210.19410041  .00039606  00000+0  99390-3 0  9994,2 63364  53.1603  14.6868 0001200  76.0209 284.0930 15.39653772 20479,important
STARLINK-33741,celestrak_active,2025-07-29T17:08:40.718624,63365,U,2025,63,C,2025,210.59784486,53.1594,12.9254,0.0001074,83.5045,276.6082,15.39616056,93.52981182472158,0,0.00028587,0.0,0.0072207,999,2054,1 63365U 25063C   25210.59784486  .00028587  00000+0  72207-3 0  9990,2 63365  53.1594  12.9254 0001074  83.5045 276.6082 15.39616056 20546,important
STARLINK-33742,celestrak_active,2025-07-29T17:08:40.718629,63366,U,2025,63,D,2025,210.19443071,53.1614,14.678,0.0001244,76.0831,284.0313,15.39650053,93.52774659372547,0,0.00074402,0.0,0.018501,999,2043,1 63366U 25063D   25210.19443071  .00074402  00000+0  18501-2 0  9992,2 63366  53.1614  14.6780 0001244  76.0831 284.0313 15.39650053 20435,important
STARLINK-33734,celestrak_active,2025-07-29T17:08:40.718635,63367,U,2025,63,E,2025,210.47580079,53.1609,19.249,0.0001197,79.2169,280.8966,15.3021752,94.10426826115544,0,0.00042027,0.0,0.014223,999,2039,1 63367U 25063E   25210.47580079  .00042027  00000+0  14223-2 0  9999,2 63367  53.1609  19.2490 0001197  79.2169 280.8966 15.30217520 20397,important
STARLINK-33578,celestrak_active,2025-07-29T17:08:40.718642,63368,U,2025,63,F,2025,210.16700146,53.1591,15.2197,0.0001284,94.7995,265.3156,15.39648361,93.52784937625117,0,0.00039543,0.0,0.009925100000000001,999,2042,1 63368U 25063F   25210.16700146  .00039543  00000+0  99251-3 0  9999,2 63368  53.1591  15.2197 0001284  94.7995 265.3156 15.39648361 20427,important
STARLINK-33626,celestrak_active,2025-07-29T17:08:40.718648,63369,U,2025,63,G,2025,209.78172017,53.1597,16.3677,0.0001054,97.9371,262.1753,15.39588518,93.5314847548116,0,0.00017658,0.0,0.0045087,999,2037,1 63369U 25063G   25209.78172017  .00017658  00000+0  45087-3 0  9997,2 63369  53.1597  16.3677 0001054  97.9371 262.1753 15.39588518 20376,important
STARLINK-33657,celestrak_active,2025-07-29T17:08:40.718653,63370,U,2025,63,H,2025,210.59751702,53.1605,12.9284,0.0001343,62.5769,297.5372,15.39680892,93.52587328205928,0,0.00068454,0.0,0.017026,999,2049,1 63370U 25063H   25210.59751702  .00068454  00000+0  17026-2 0  9995,2 63370  53.1605  12.9284 0001343  62.5769 297.5372 15.39680892 20494,important
STARLINK-33648,celestrak_active,2025-07-29T17:08:40.718659,63371,U,2025,63,J,2025,210.48161813,53.1601,13.6272,0.0001273,74.5541,285.5605,15.39630013,93.52896396155145,0,0.00071929,0.0,0.017907,999,2052,1 63371U 25063J   25210.48161813  .00071929  00000+0  17907-2 0  9991,2 63371  53.1601  13.6272 0001273  74.5541 285.5605 15.39630013 20529,important
STARLINK-33614,celestrak_active,2025-07-29T17:08:40.718664,63372,U,2025,63,K,2025,210.45873208,53.1613,13.4844,0.0001134,67.1555,292.9569,15.39652908,93.52757316391208,0,0.00047974,0.0,0.012005,999,2052,1 63372U 25063K   25210.45873208  .00047974  00000+0  12005-2 0  9994,2 63372  53.1613  13.4844 0001134  67.1555 292.9569 15.39652908 20523,important
STARLINK-33617,celestrak_active,2025-07-29T17:08:40.718669,63373,U,2025,63,L,2025,210.48185164,53.1605,12.9106,0.0001736,81.9079,278.2123,15.39655319,93.52742670582103,0,0.00040301,0.0,0.01011,999,2048,1 63373U 25063L   25210.48185164  .00040301  00000+0  10110-2 0  9997,2 63373  53.1605  12.9106 0001736  81.9079 278.2123 15.39655319 20480,important
STARLINK-33618,celestrak_active,2025-07-29T17:08:40.718674,63374,U,2025,63,M,2025,210.42157965,53.1598,13.2494,0.0002072,89.9306,270.1936,15.39665714,93.52679525862327,0,0.00046053,0.0,0.011526000000000002,999,2052,1 63374U 25063M   25210.42157965  .00046053  00000+0  11526-2 0  9992,2 63374  53.1598  13.2494 0002072  89.9306 270.1936 15.39665714 20529,important
STARLINK-33621,celestrak_active,2025-07-29T17:08:40.718681,63375,U,2025,63,N,2025,210.44479843,53.1612,13.3939,0.0001692,110.0727,250.046,15.3967116,93.52646444322566,0,0.00062224,0.0,0.015503000000000001,999,2047,1 63375U 25063N   25210.44479843  .00062224  00000+0  15503-2 0  9994,2 63375  53.1612  13.3939 0001692 110.0727 250.0460 15.39671160 20477,important
STARLINK-33539,celestrak_active,2025-07-29T17:08:40.718687,63376,U,2025,63,P,2025,210.4831854,53.1603,19.2956,0.0001253,110.127,249.9866,15.30218667,94.10419772378846,0,0.00033209,0.0,0.011276999999999999,999,2039,1 63376U 25063P   25210.48318540  .00033209  00000+0  11277-2 0  9990,2 63376  53.1603  19.2956 0001253 110.1270 249.9866 15.30218667 20397,important
STARLINK-33634,celestrak_active,2025-07-29T17:08:40.718693,63377,U,2025,63,Q,2025,209.78636834,53.1604,16.3949,9.19e-05,79.5173,280.5935,15.39639939,93.52836098388586,0,0.0002702,0.0,0.0068262999999999996,999,2042,1 63377U 25063Q   25209.78636834  .00027020  00000+0  68263-3 0  9993,2 63377  53.1604  16.3949 0000919  79.5173 280.5935 15.39639939 20427,important
